*******************************************************************************
 Revised: April 12, 2021               Jupiter                              599
 
 PHYSICAL DATA:
  Mass x 10^22 (g)      = 189818722 +- 8817 Density (g/cm^3)  = 1.3262 +- .0003
  Equat. radius (1 bar) = 71492+-4 km       Polar radius (km)     = 66854+-10
  Vol. Mean Radius (km) = 69911+-6          Flattening            = 0.06487
  Geometric Albedo      = 0.52              Rocky core mass (Mc/M)= 0.0261
  Sid. rot. period (III)= 9h 55m 29.71 s    Sid. rot. rate (rad/s)= 0.00017585
  Mean solar day, hrs   = ~9.9259         
  GM (km^3/s^2)         = 126686531.900     GM 1-sigma (km^3/s^2) =  +- 1.2732
  Equ. grav, ge (m/s^2) = 24.79             Pol. grav, gp (m/s^2) =  28.34
  Vis. magnitude V(1,0) = -9.40
  Vis. mag. (opposition)= -2.70             Obliquity to orbit    =  3.13 deg
  Sidereal orbit period = 11.861982204 y    Sidereal orbit period = 4332.589 d
  Mean daily motion     = 0.0831294 deg/d   Mean orbit speed, km/s= 13.0697
  Atmos. temp. (1 bar)  = 165+-5 K          Escape speed, km/s    =  59.5           
  A_roche(ice)/Rp       =  2.76             Hill's sphere rad. Rp = 740
                                 Perihelion   Aphelion     Mean
  Solar Constant (W/m^2)         56           46           51
  Maximum Planetary IR (W/m^2)   13.7         13.4         13.6
  Minimum Planetary IR (W/m^2)   13.7         13.4         13.6
*******************************************************************************


*******************************************************************************
Ephemeris / WWW_USER Thu May 18 21:42:47 2023 Pasadena, USA      / Horizons    
*******************************************************************************
Target body name: Jupiter (599)                   {source: jup365_merged}
Center body name: Earth (399)                     {source: DE441}
Center-site name: GEOCENTRIC
*******************************************************************************
Start time      : A.D. 2023-Jan-01 00:00:00.0000 UT      
Stop  time      : A.D. 2023-May-18 00:00:00.0000 UT      
Step-size       : 1440 minutes
*******************************************************************************
Target pole/equ : IAU_JUPITER                     {West-longitude positive}
Target radii    : 71492.0, 71492.0, 66854.0 km    {Equator_a, b, pole_c}       
Center geodetic : 0.0, 0.0, -6378.137             {E-lon(deg),Lat(deg),Alt(km)}
Center cylindric: 0.0, 0.0, 0.0                   {E-lon(deg),Dxy(km),Dz(km)}
Center pole/equ : ITRF93                          {East-longitude positive}
Center radii    : 6378.137, 6378.137, 6356.752 km {Equator_a, b, pole_c}       
Target primary  : Sun
Vis. interferer : MOON (R_eq= 1737.400) km        {source: DE441}
Rel. light bend : Sun                             {source: jup365_merged}
Rel. lght bnd GM: 1.3271E+11 km^3/s^2                                          
Atmos refraction: NO (AIRLESS)
RA format       : HMS
Time format     : CAL 
Calendar mode   : Mixed Julian/Gregorian
EOP file        : eop.230517.p230810                                           
EOP coverage    : DATA-BASED 1962-JAN-20 TO 2023-MAY-17. PREDICTS-> 2023-AUG-09
Units conversion: 1 au= 149597870.700 km, c= 299792.458 km/s, 1 day= 86400.0 s 
Table cut-offs 1: Elevation (-90.0deg=NO ),Airmass (>38.000=NO), Daylight (NO )
Table cut-offs 2: Solar elongation (  0.0,180.0=NO ),Local Hour Angle( 0.0=NO )
Table cut-offs 3: RA/DEC angular rate (     0.0=NO )                           
******************************************************************************************************************************************************************************
 Date__(UT)__HR:MN     R.A._____(ICRF)_____DEC    APmag   S-brt             delta      deldot     S-O-T /r     S-T-O  Sky_motion  Sky_mot_PA  RelVel-ANG  Lun_Sky_Brt  sky_SNR
******************************************************************************************************************************************************************************
$$SOE
 2023-Mar-08 00:00     00 50 04.15 +04 10 33.0   -2.082   5.302  5.82140254573029  12.5219965   26.3339 /T    5.1027   0.5734733   66.775485   17.234537         n.a.     n.a.
 2023-Mar-09 00:00     00 50 54.95 +04 15 59.3   -2.080   5.302  5.82854168144622  12.2004502   25.5643 /T    4.9648   0.5752439   66.806317   16.748851         n.a.     n.a.
 2023-Mar-10 00:00     00 51 45.92 +04 21 26.2   -2.078   5.301  5.83549398079521  11.8742946   24.7959 /T    4.8262   0.5769877   66.837485   16.259978         n.a.     n.a.
 2023-Mar-11 00:00     00 52 37.07 +04 26 53.6   -2.077   5.300  5.84225812579215  11.5482784   24.0287 /T    4.6869   0.5786924   66.868746   15.774358         n.a.     n.a.
 2023-Mar-12 00:00     00 53 28.38 +04 32 21.6   -2.075   5.300  5.84883222506878  11.2179469   23.2627 /T    4.5470   0.5803025   66.900488   15.287544         n.a.     n.a.
 2023-Mar-13 00:00     00 54 19.85 +04 37 50.0   -2.073   5.299  5.85521635345805  10.8883352   22.4979 /T    4.4064   0.5818957   66.932219   14.803978         n.a.     n.a.
 2023-Mar-14 00:00     00 55 11.48 +04 43 18.9   -2.072   5.298  5.86140891529999  10.5567798   21.7342 /T    4.2652   0.5833990   66.964289   14.321913         n.a.     n.a.
 2023-Mar-15 00:00     00 56 03.26 +04 48 48.2   -2.070   5.298  5.86740984107192  10.2225751   20.9716 /T    4.1234   0.5848868   66.996558   13.838545         n.a.     n.a.
 2023-Mar-16 00:00     00 56 55.19 +04 54 17.9   -2.069   5.297  5.87321754765528   9.8895646   20.2102 /T    3.9811   0.5862894   67.028962   13.360399         n.a.     n.a.
 2023-Mar-17 00:00     00 57 47.26 +04 59 48.0   -2.067   5.297  5.87883202805103   9.5520684   19.4498 /T    3.8382   0.5876761   67.061686   12.878429         n.a.     n.a.
 2023-Mar-18 00:00     00 58 39.47 +05 05 18.3   -2.066   5.296  5.88425154251233   9.2144591   18.6905 /T    3.6947   0.5890100   67.094596   12.399075         n.a.     n.a.
 2023-Mar-19 00:00     00 59 31.81 +05 10 49.0   -2.064   5.296  5.88947421231946   8.8715589   17.9324 /T    3.5508   0.5902542   67.128104   11.916203         n.a.     n.a.
 2023-Mar-20 00:00     01 00 24.29 +05 16 19.9   -2.063   5.295  5.89449966174119   8.5299422   17.1753 /T    3.4064   0.5914603   67.161728   11.437231         n.a.     n.a.
 2023-Mar-21 00:00     01 01 16.88 +05 21 50.9   -2.062   5.295  5.89932645911433   8.1857112   16.4193 /T    3.2616   0.5925671   67.195895   10.958109         n.a.     n.a.
 2023-Mar-22 00:00     01 02 09.60 +05 27 22.2   -2.061   5.294  5.90395469744456   7.8401313   15.6645 /T    3.1164   0.5936464   67.230389   10.479033         n.a.     n.a.
 2023-Mar-23 00:00     01 03 02.43 +05 32 53.5   -2.059   5.294  5.90838300384235   7.4957329   14.9108 /T    2.9708   0.5946178   67.265268   10.004598         n.a.     n.a.
 2023-Mar-24 00:00     01 03 55.36 +05 38 24.9   -2.058   5.294  5.91261221017029   7.1487647   14.1583 /T    2.8248   0.5955716   67.300553   9.5282416         n.a.     n.a.
 2023-Mar-25 00:00     01 04 48.40 +05 43 56.3   -2.057   5.293  5.91664116085136   6.8029805   13.4070 /T    2.6785   0.5964557   67.336172   9.0556378         n.a.     n.a.
 2023-Mar-26 00:00     01 05 41.54 +05 49 27.7   -2.056   5.293  5.92046907919118   6.4530404   12.6569 /T    2.5319   0.5972616   67.372455   8.5797675         n.a.     n.a.
 2023-Mar-27 00:00     01 06 34.77 +05 54 59.0   -2.055   5.293  5.92409610812743   6.1063937   11.9080 /T    2.3851   0.5980181   67.408885   8.1098422         n.a.     n.a.
 2023-Mar-28 00:00     01 07 28.09 +06 00 30.2   -2.054   5.292  5.92752192311962   5.7579151   11.1605 /T    2.2381   0.5986881   67.445862   7.6395158         n.a.     n.a.
 2023-Mar-29 00:00     01 08 21.48 +06 06 01.3   -2.053   5.292  5.93074733891348   5.4102538   10.4143 /T    2.0908   0.5993390   67.483062   7.1712817         n.a.     n.a.
 2023-Mar-30 00:00     01 09 14.96 +06 11 32.2   -2.053   5.292  5.93377160587993   5.0639067    9.6695 /T    1.9435   0.5998884   67.520639   6.7066788         n.a.     n.a.
 2023-Mar-31 00:00     01 10 08.51 +06 17 02.9   -2.052   5.292  5.93659630823822   4.7168345    8.9264 /T    1.7960   0.6004399   67.558459   6.2417449         n.a.     n.a.
 2023-Apr-01 00:00     01 11 02.12 +06 22 33.3   -2.051   5.291  5.93922064497355   4.3713080    8.1849 /T    1.6486   0.6009270   67.596559   5.7801183         n.a.     n.a.
 2023-Apr-02 00:00     01 11 55.81 +06 28 03.5   -2.051   5.291  5.94164443535671   4.0220128    7.4454 /T    1.5012   0.6013645   67.635210   5.3145508         n.a.     n.a.
 2023-Apr-03 00:00     01 12 49.55 +06 33 33.3   -2.050   5.291  5.94386764501187   3.6764975    6.7082 /T    1.3539   0.6017511   67.673959   4.8548804         n.a.     n.a.
 2023-Apr-04 00:00     01 13 43.36 +06 39 02.9   -2.049   5.291  5.94589035962384   3.3288160    5.9739 /T    1.2069   0.6020727   67.713196   4.3932872         n.a.     n.a.
 2023-Apr-05 00:00     01 14 37.21 +06 44 32.0   -2.049   5.291  5.94771330568673   2.9828004    5.2433 /T    1.0603   0.6023813   67.752567   3.9343387         n.a.     n.a.
 2023-Apr-06 00:00     01 15 31.11 +06 50 00.8   -2.048   5.291  5.94933574824501   2.6370229    4.5178 /T    0.9146   0.6025975   67.792330   3.4766008         n.a.     n.a.
 2023-Apr-07 00:00     01 16 25.06 +06 55 29.1   -2.048   5.291  5.95075928682571   2.2914440    3.7999 /T    0.7701   0.6028268   67.832218   3.0192940         n.a.     n.a.
 2023-Apr-08 00:00     01 17 19.05 +07 00 56.9   -2.047   5.291  5.95198298490056   1.9466715    3.0943 /T    0.6279   0.6029932   67.872387   2.5635873         n.a.     n.a.
 2023-Apr-09 00:00     01 18 13.09 +07 06 24.3   -2.047   5.291  5.95300674181757   1.5979950    2.4114 /T    0.4900   0.6031306   67.913028   2.1030233         n.a.     n.a.
